[{"OBJECT_NAME":"OBJECT AL","OBJECT_ID":"2023-085AL","EPOCH":"2026-03-09T22:26:04.970400","MEAN_MOTION":15.31857284,"ECCENTRICITY":0.000802,"INCLINATION":97.4839,"RA_OF_ASC_NODE":180.0127,"ARG_OF_PERICENTER":78.7242,"MEAN_ANOMALY":281.49,"EPHEMERIS_TYPE":0,"CLASSIFICATION_TYPE":"U","NORAD_CAT_ID":57038,"ELEMENT_SET_NO":999,"REV_AT_EPOCH":15154,"BSTAR":0.0006591637,"MEAN_MOTION_DOT":0.00020246,"MEAN_MOTION_DDOT":0},{"OBJECT_NAME":"STARLINK-33734","OBJECT_ID":"2025-063E","EPOCH":"2026-03-09T23:35:28.039488","MEAN_MOTION":15.30217354,"ECCENTRICITY":0.00016835,"INCLINATION":53.1602,"RA_OF_ASC_NODE":61.0759,"ARG_OF_PERICENTER":77.5329,"MEAN_ANOMALY":282.586,"EPHEMERIS_TYPE":0,"CLASSIFICATION_TYPE":"U","NORAD_CAT_ID":63367,"ELEMENT_SET_NO":999,"REV_AT_EPOCH":5461,"BSTAR":0.0011497586,"MEAN_MOTION_DOT":0.00033867,"MEAN_MOTION_DDOT":0}]
